[{"OBJECT_NAME":"JILIN-1 07","OBJECT_ID":"2018-008E","EPOCH":"2026-03-09T22:24:26.445888","MEAN_MOTION":15.32987507,"ECCENTRICITY":0.00101791,"INCLINATION":97.1876,"RA_OF_ASC_NODE":91.5817,"ARG_OF_PERICENTER":62.7832,"MEAN_ANOMALY":297.4447,"EPHEMERIS_TYPE":0,"CLASSIFICATION_TYPE":"U","NORAD_CAT_ID":43159,"ELEMENT_SET_NO":999,"REV_AT_EPOCH":44978,"BSTAR":0.00036439521,"MEAN_MOTION_DOT":0.00011559,"MEAN_MOTION_DDOT":0},{"OBJECT_NAME":"STARLINK-32848","OBJECT_ID":"2025-018C","EPOCH":"2026-03-09T21:59:34.250496","MEAN_MOTION":15.3020619,"ECCENTRICITY":0.00010745,"INCLINATION":53.1596,"RA_OF_ASC_NODE":308.5039,"ARG_OF_PERICENTER":153.5938,"MEAN_ANOMALY":206.5118,"EPHEMERIS_TYPE":0,"CLASSIFICATION_TYPE":"U","NORAD_CAT_ID":62808,"ELEMENT_SET_NO":999,"REV_AT_EPOCH":6320,"BSTAR":0.00081657949,"MEAN_MOTION_DOT":0.00023908,"MEAN_MOTION_DDOT":0}]
